{
  "type": "FeatureCollection",
  "features": [
    {
      "type": "Feature",
      "properties": {
        "norad_id": 36585,
        "name": "GPS BIIF-1  (PRN 25)",
        "group": "gnss",
        "lat": -14.803277406627169,
        "lon": 46.73769666303244,
        "alt_km": 20412.828191915843,
        "timestamp": "2025-12-20T05:41:50.271938+00:00",
        "meta_object_name": "GPS BIIF-1  (PRN 25)",
        "meta_object_id": "2010-022A",
        "meta_epoch": "2025-12-19T06:21:16.820064",
        "meta_mean_motion": 2.00553606,
        "meta_eccentricity": 0.0126373,
        "meta_inclination": 54.2991,
        "meta_ra_of_asc_node": 215.8107,
        "meta_arg_of_pericenter": 65.1538,
        "meta_mean_anomaly": 149.9258,
        "meta_ephemeris_type": 0,
        "meta_classification_type": "U",
        "meta_norad_cat_id": 36585,
        "meta_element_set_no": 999,
        "meta_rev_at_epoch": 11398,
        "meta_bstar": 0,
        "meta_mean_motion_dot": 8.2e-07,
        "meta_mean_motion_ddot": 0,
        "tle_line1": "1 36585U 10022A   25353.26477801  .00000082  00000+0  00000+0 0  9993",
        "tle_line2": "2 36585  54.2991 215.8107 0126373  65.1538 149.9258  2.00553606113980"
      },
      "geometry": {
        "type": "Point",
        "coordinates": [
          46.73769666303244,
          -14.803277406627169
        ]
      }
    },
    {
      "type": "Feature",
      "properties": {
        "norad_id": 36828,
        "name": "BEIDOU-2 IGSO-1 (C06)",
        "group": "gnss",
        "lat": 46.104510477767775,
        "lon": -63.92946766011373,
        "alt_km": 35811.68157674828,
        "timestamp": "2025-12-20T05:41:50.271950+00:00",
        "meta_object_name": "BEIDOU-2 IGSO-1 (C06)",
        "meta_object_id": "2010-036A",
        "meta_epoch": "2025-12-14T21:38:21.623424",
        "meta_mean_motion": 1.00275796,
        "meta_eccentricity": 0.00512569,
        "meta_inclination": 54.2866,
        "meta_ra_of_asc_node": 164.6279,
        "meta_arg_of_pericenter": 215.8888,
        "meta_mean_anomaly": 135.7931,
        "meta_ephemeris_type": 0,
        "meta_classification_type": "U",
        "meta_norad_cat_id": 36828,
        "meta_element_set_no": 999,
        "meta_rev_at_epoch": 5624,
        "meta_bstar": 0,
        "meta_mean_motion_dot": -2.4e-07,
        "meta_mean_motion_ddot": 0,
        "tle_line1": "1 36828U 10036A   25348.90163916 -.00000024  00000+0  00000+0 0  9999",
        "tle_line2": "2 36828  54.2866 164.6279 0051256 215.8888 135.7931  1.00275796 56247"
      },
      "geometry": {
        "type": "Point",
        "coordinates": [
          -63.92946766011373,
          46.104510477767775
        ]
      }
    },
    {
      "type": "Feature",
      "properties": {
        "norad_id": 37210,
        "name": "BEIDOU-2 G4 (C04)",
        "group": "gnss",
        "lat": -3.201245186210629,
        "lon": -25.281611700505206,
        "alt_km": 35772.81554821111,
        "timestamp": "2025-12-20T05:41:50.271964+00:00",
        "meta_object_name": "BEIDOU-2 G4 (C04)",
        "meta_object_id": "2010-057A",
        "meta_epoch": "2025-12-19T19:09:33.042240",
        "meta_mean_motion": 1.00272058,
        "meta_eccentricity": 0.00104273,
        "meta_inclination": 3.2013,
        "meta_ra_of_asc_node": 69.9127,
        "meta_arg_of_pericenter": 192.6377,
        "meta_mean_anomaly": 273.5616,
        "meta_ephemeris_type": 0,
        "meta_classification_type": "U",
        "meta_norad_cat_id": 37210,
        "meta_element_set_no": 999,
        "meta_rev_at_epoch": 5549,
        "meta_bstar": 0,
        "meta_mean_motion_dot": -9e-07,
        "meta_mean_motion_ddot": 0,
        "tle_line1": "1 37210U 10057A   25353.79829910 -.00000090  00000+0  00000+0 0  9997",
        "tle_line2": "2 37210   3.2013  69.9127 0010427 192.6377 273.5616  1.00272058 55495"
      },
      "geometry": {
        "type": "Point",
        "coordinates": [
          -25.281611700505206,
          -3.201245186210629
        ]
      }
    },
    {
      "type": "Feature",
      "properties": {
        "norad_id": 37256,
        "name": "BEIDOU-2 IGSO-2 (C07)",
        "group": "gnss",
        "lat": 6.3684789486453335,
        "lon": -80.17427465759762,
        "alt_km": 35962.87093703749,
        "timestamp": "2025-12-20T05:41:50.271976+00:00",
        "meta_object_name": "BEIDOU-2 IGSO-2 (C07)",
        "meta_object_id": "2010-068A",
        "meta_epoch": "2025-12-19T17:11:58.178112",
        "meta_mean_motion": 1.00284373,
        "meta_eccentricity": 0.00484108,
        "meta_inclination": 47.8732,
        "meta_ra_of_asc_node": 274.0632,
        "meta_arg_of_pericenter": 216.3467,
        "meta_mean_anomaly": 324.0365,
        "meta_ephemeris_type": 0,
        "meta_classification_type": "U",
        "meta_norad_cat_id": 37256,
        "meta_element_set_no": 999,
        "meta_rev_at_epoch": 5499,
        "meta_bstar": 0,
        "meta_mean_motion_dot": -1.93e-06,
        "meta_mean_motion_ddot": 0,
        "tle_line1": "1 37256U 10068A   25353.71664558 -.00000193  00000+0  00000+0 0  9990",
        "tle_line2": "2 37256  47.8732 274.0632 0048410 216.3467 324.0365  1.00284373 54994"
      },
      "geometry": {
        "type": "Point",
        "coordinates": [
          -80.17427465759762,
          6.3684789486453335
        ]
      }
    },
    {
      "type": "Feature",
      "properties": {
        "norad_id": 37384,
        "name": "BEIDOU-2 IGSO-3 (C08)",
        "group": "gnss",
        "lat": -50.18707698446495,
        "lon": -98.80123321024212,
        "alt_km": 35701.38346483779,
        "timestamp": "2025-12-20T05:41:50.271988+00:00",
        "meta_object_name": "BEIDOU-2 IGSO-3 (C08)",
        "meta_object_id": "2011-013A",
        "meta_epoch": "2025-12-19T15:24:21.799872",
        "meta_mean_motion": 1.00269211,
        "meta_eccentricity": 0.0035344,
        "meta_inclination": 62.1523,
        "meta_ra_of_asc_node": 41.8505,
        "meta_arg_of_pericenter": 187.8464,
        "meta_mean_anomaly": 197.2749,
        "meta_ephemeris_type": 0,
        "meta_classification_type": "U",
        "meta_norad_cat_id": 37384,
        "meta_element_set_no": 999,
        "meta_rev_at_epoch": 5386,
        "meta_bstar": 0,
        "meta_mean_motion_dot": -1.68e-06,
        "meta_mean_motion_ddot": 0,
        "tle_line1": "1 37384U 11013A   25353.64191898 -.00000168  00000+0  00000+0 0  9999",
        "tle_line2": "2 37384  62.1523  41.8505 0035344 187.8464 197.2749  1.00269211 53869"
      },
      "geometry": {
        "type": "Point",
        "coordinates": [
          -98.80123321024212,
          -50.18707698446495
        ]
      }
    },
    {
      "type": "Feature",
      "properties": {
        "norad_id": 37605,
        "name": "GSAT-8 (GAGAN/PRN 127)",
        "group": "gnss",
        "lat": 0.9248121871466296,
        "lon": -130.44636591588213,
        "alt_km": 35757.67738836863,
        "timestamp": "2025-12-20T05:41:50.272001+00:00",
        "meta_object_name": "GSAT-8 (GAGAN/PRN 127)",
        "meta_object_id": "2011-022A",
        "meta_epoch": "2025-12-19T18:39:43.398432",
        "meta_mean_motion": 1.00270832,
        "meta_eccentricity": 0.00087466,
        "meta_inclination": 1.6669,
        "meta_ra_of_asc_node": 84.1218,
        "meta_arg_of_pericenter": 185.2037,
        "meta_mean_anomaly": 154.3076,
        "meta_ephemeris_type": 0,
        "meta_classification_type": "U",
        "meta_norad_cat_id": 37605,
        "meta_element_set_no": 999,
        "meta_rev_at_epoch": 5141,
        "meta_bstar": 0,
        "meta_mean_motion_dot": 1.08e-06,
        "meta_mean_motion_ddot": 0,
        "tle_line1": "1 37605U 11022A   25353.77758563  .00000108  00000+0  00000+0 0  9990",
        "tle_line2": "2 37605   1.6669  84.1218 0008746 185.2037 154.3076  1.00270832 51416"
      },
      "geometry": {
        "type": "Point",
        "coordinates": [
          -130.44636591588213,
          0.9248121871466296
        ]
      }
    },
    {
      "type": "Feature",
      "properties": {
        "norad_id": 37763,
        "name": "BEIDOU-2 IGSO-4 (C09)",
        "group": "gnss",
        "lat": 53.17649574088106,
        "lon": -84.90347595489845,
        "alt_km": 36174.6185155668,
        "timestamp": "2025-12-20T05:41:50.272015+00:00",
        "meta_object_name": "BEIDOU-2 IGSO-4 (C09)",
        "meta_object_id": "2011-038A",
        "meta_epoch": "2025-12-17T23:29:21.564384",
        "meta_mean_motion": 1.00281312,
        "meta_eccentricity": 0.01493143,
        "meta_inclination": 54.5836,
        "meta_ra_of_asc_node": 167.2999,
        "meta_arg_of_pericenter": 230.2426,
        "meta_mean_anomaly": 136.1954,
        "meta_ephemeris_type": 0,
        "meta_classification_type": "U",
        "meta_norad_cat_id": 37763,
        "meta_element_set_no": 999,
        "meta_rev_at_epoch": 5283,
        "meta_bstar": 0,
        "meta_mean_motion_dot": 6.5e-07,
        "meta_mean_motion_ddot": 0,
        "tle_line1": "1 37763U 11038A   25351.97872181  .00000065  00000+0  00000+0 0  9997",
        "tle_line2": "2 37763  54.5836 167.2999 0149314 230.2426 136.1954  1.00281312 52838"
      },
      "geometry": {
        "type": "Point",
        "coordinates": [
          -84.90347595489845,
          53.17649574088106
        ]
      }
    }
  ]
}